[{"OBJECT_NAME":"ONEWEB-0666","OBJECT_ID":"2023-029AG","EPOCH":"2025-11-30T11:24:06.063552","MEAN_MOTION":13.2077086,"ECCENTRICITY":0.0001156,"INCLINATION":87.9187,"RA_OF_ASC_NODE":314.1177,"ARG_OF_PERICENTER":72.9805,"MEAN_ANOMALY":287.1455,"EPHEMERIS_TYPE":0,"CLASSIFICATION_TYPE":"U","NORAD_CAT_ID":55826,"ELEMENT_SET_NO":999,"REV_AT_EPOCH":13492,"BSTAR":-0.00081191313,"MEAN_MOTION_DOT":-3.17e-6,"MEAN_MOTION_DDOT":0},{"OBJECT_NAME":"ONEWEB-0667","OBJECT_ID":"2023-029AH","EPOCH":"2025-11-30T11:15:02.567808","MEAN_MOTION":13.20770213,"ECCENTRICITY":0.00020371,"INCLINATION":87.9192,"RA_OF_ASC_NODE":314.0506,"ARG_OF_PERICENTER":89.4225,"MEAN_ANOMALY":270.7142,"EPHEMERIS_TYPE":0,"CLASSIFICATION_TYPE":"U","NORAD_CAT_ID":55827,"ELEMENT_SET_NO":999,"REV_AT_EPOCH":13491,"BSTAR":6.5039802e-5,"MEAN_MOTION_DOT":3.9e-7,"MEAN_MOTION_DDOT":0},{"OBJECT_NAME":"ONEWEB-0669","OBJECT_ID":"2023-029AJ","EPOCH":"2025-11-30T11:08:13.003296","MEAN_MOTION":13.20770051,"ECCENTRICITY":0.00015,"INCLINATION":87.9185,"RA_OF_ASC_NODE":314.0869,"ARG_OF_PERICENTER":105.8083,"MEAN_ANOMALY":254.3216,"EPHEMERIS_TYPE":0,"CLASSIFICATION_TYPE":"U","NORAD_CAT_ID":55828,"ELEMENT_SET_NO":999,"REV_AT_EPOCH":13491,"BSTAR":-4.9136278e-5,"MEAN_MOTION_DOT":-7.0e-8,"MEAN_MOTION_DDOT":0},{"OBJECT_NAME":"ONEWEB-0670","OBJECT_ID":"2023-029AK","EPOCH":"2025-11-30T13:04:37.340832","MEAN_MOTION":13.14501493,"ECCENTRICITY":0.00020542,"INCLINATION":87.8984,"RA_OF_ASC_NODE":329.3315,"ARG_OF_PERICENTER":97.8275,"MEAN_ANOMALY":262.3088,"EPHEMERIS_TYPE":0,"CLASSIFICATION_TYPE":"U","NORAD_CAT_ID":55829,"ELEMENT_SET_NO":999,"REV_AT_EPOCH":13333,"BSTAR":-0.00010293445,"MEAN_MOTION_DOT":-2.5e-7,"MEAN_MOTION_DDOT":0},{"OBJECT_NAME":"ONEWEB-0671","OBJECT_ID":"2023-029AL","EPOCH":"2025-11-30T10:09:50.718816","MEAN_MOTION":13.19724801,"ECCENTRICITY":0.00019803,"INCLINATION":87.9194,"RA_OF_ASC_NODE":344.5306,"ARG_OF_PERICENTER":92.8812,"MEAN_ANOMALY":267.2547,"EPHEMERIS_TYPE":0,"CLASSIFICATION_TYPE":"U","NORAD_CAT_ID":55830,"ELEMENT_SET_NO":999,"REV_AT_EPOCH":13268,"BSTAR":-3.2856392e-5,"MEAN_MOTION_DOT":0,"MEAN_MOTION_DDOT":0},{"OBJECT_NAME":"ONEWEB-0672","OBJECT_ID":"2023-029AM","EPOCH":"2025-11-30T11:01:22.549728","MEAN_MOTION":13.20774153,"ECCENTRICITY":0.00015427,"INCLINATION":87.9182,"RA_OF_ASC_NODE":314.068,"ARG_OF_PERICENTER":86.0482,"MEAN_ANOMALY":274.0828,"EPHEMERIS_TYPE":0,"CLASSIFICATION_TYPE":"U","NORAD_CAT_ID":55831,"ELEMENT_SET_NO":999,"REV_AT_EPOCH":13491,"BSTAR":0.00035861705,"MEAN_MOTION_DOT":1.59e-6,"MEAN_MOTION_DDOT":0},{"OBJECT_NAME":"ONEWEB-0673","OBJECT_ID":"2023-029AN","EPOCH":"2025-11-30T13:14:43.748736","MEAN_MOTION":13.1965045,"ECCENTRICITY":0.00015452,"INCLINATION":87.921,"RA_OF_ASC_NODE":344.4833,"ARG_OF_PERICENTER":90.7404,"MEAN_ANOMALY":269.3906,"EPHEMERIS_TYPE":0,"CLASSIFICATION_TYPE":"U","NORAD_CAT_ID":55832,"ELEMENT_SET_NO":999,"REV_AT_EPOCH":13270,"BSTAR":0.00012184341,"MEAN_MOTION_DOT":6.2e-7,"MEAN_MOTION_DDOT":0},{"OBJECT_NAME":"ONEWEB-0674","OBJECT_ID":"2023-029AP","EPOCH":"2025-11-30T10:29:21.148512","MEAN_MOTION":13.14502849,"ECCENTRICITY":0.00020249,"INCLINATION":87.8975,"RA_OF_ASC_NODE":329.3313,"ARG_OF_PERICENTER":100.6057,"MEAN_ANOMALY":259.5301,"EPHEMERIS_TYPE":0,"CLASSIFICATION_TYPE":"U","NORAD_CAT_ID":55833,"ELEMENT_SET_NO":999,"REV_AT_EPOCH":13330,"BSTAR":0.00073270576,"MEAN_MOTION_DOT":2.84e-6,"MEAN_MOTION_DDOT":0},{"OBJECT_NAME":"ONEWEB-0675","OBJECT_ID":"2023-029AQ","EPOCH":"2025-11-30T11:47:38.182560","MEAN_MOTION":13.19723726,"ECCENTRICITY":0.00016253,"INCLINATION":87.9192,"RA_OF_ASC_NODE":344.5263,"ARG_OF_PERICENTER":83.4377,"MEAN_ANOMALY":276.6941,"EPHEMERIS_TYPE":0,"CLASSIFICATION_TYPE":"U","NORAD_CAT_ID":55834,"ELEMENT_SET_NO":999,"REV_AT_EPOCH":13271,"BSTAR":-5.8802082e-5,"MEAN_MOTION_DOT":-1.1e-7,"MEAN_MOTION_DDOT":0},{"OBJECT_NAME":"ONEWEB-0720","OBJECT_ID":"2023-029AR","EPOCH":"2025-11-30T13:25:26.725440","MEAN_MOTION":13.19724111,"ECCENTRICITY":0.00021541,"INCLINATION":87.9192,"RA_OF_ASC_NODE":344.5106,"ARG_OF_PERICENTER":87.3178,"MEAN_ANOMALY":272.8201,"EPHEMERIS_TYPE":0,"CLASSIFICATION_TYPE":"U","NORAD_CAT_ID":55835,"ELEMENT_SET_NO":999,"REV_AT_EPOCH":13264,"BSTAR":4.4939909e-5,"MEAN_MOTION_DOT":3.1e-7,"MEAN_MOTION_DDOT":0},{"OBJECT_NAME":"ONEWEB-0537","OBJECT_ID":"2023-043A","EPOCH":"2025-11-30T12:55:30.413280","MEAN_MOTION":13.16593691,"ECCENTRICITY":0.00016393,"INCLINATION":87.904,"RA_OF_ASC_NODE":268.3268,"ARG_OF_PERICENTER":71.4528,"MEAN_ANOMALY":288.6781,"EPHEMERIS_TYPE":0,"CLASSIFICATION_TYPE":"U","NORAD_CAT_ID":56046,"ELEMENT_SET_NO":999,"REV_AT_EPOCH":13282,"BSTAR":1.935904e-5,"MEAN_MOTION_DOT":2.0e-7,"MEAN_MOTION_DDOT":0},{"OBJECT_NAME":"ONEWEB-0538","OBJECT_ID":"2023-043B","EPOCH":"2025-11-30T12:46:23.128896","MEAN_MOTION":13.16594269,"ECCENTRICITY":0.00018849,"INCLINATION":87.9035,"RA_OF_ASC_NODE":268.3332,"ARG_OF_PERICENTER":67.1764,"MEAN_ANOMALY":292.9566,"EPHEMERIS_TYPE":0,"CLASSIFICATION_TYPE":"U","NORAD_CAT_ID":56047,"ELEMENT_SET_NO":999,"REV_AT_EPOCH":13283,"BSTAR":5.5026364e-5,"MEAN_MOTION_DOT":3.4e-7,"MEAN_MOTION_DDOT":0},{"OBJECT_NAME":"ONEWEB-0546","OBJECT_ID":"2023-043C","EPOCH":"2025-11-30T12:28:09.622848","MEAN_MOTION":13.16595018,"ECCENTRICITY":0.00011527,"INCLINATION":87.9047,"RA_OF_ASC_NODE":268.3259,"ARG_OF_PERICENTER":66.2604,"MEAN_ANOMALY":293.8648,"EPHEMERIS_TYPE":0,"CLASSIFICATION_TYPE":"U","NORAD_CAT_ID":56048,"ELEMENT_SET_NO":999,"REV_AT_EPOCH":13282,"BSTAR":0.00028447524,"MEAN_MOTION_DOT":1.22e-6,"MEAN_MOTION_DDOT":0},{"OBJECT_NAME":"ONEWEB-0547","OBJECT_ID":"2023-043D","EPOCH":"2025-11-30T14:54:59.569920","MEAN_MOTION":13.21823586,"ECCENTRICITY":0.00019877,"INCLINATION":87.9207,"RA_OF_ASC_NODE":283.5784,"ARG_OF_PERICENTER":76.3198,"MEAN_ANOMALY":283.8157,"EPHEMERIS_TYPE":0,"CLASSIFICATION_TYPE":"U","NORAD_CAT_ID":56049,"ELEMENT_SET_NO":999,"REV_AT_EPOCH":13199,"BSTAR":-0.00010741248,"MEAN_MOTION_DOT":-3.1e-7,"MEAN_MOTION_DDOT":0},{"OBJECT_NAME":"ONEWEB-0548","OBJECT_ID":"2023-043E","EPOCH":"2025-11-30T05:45:42.975072","MEAN_MOTION":13.16592643,"ECCENTRICITY":0.0001908,"INCLINATION":87.9028,"RA_OF_ASC_NODE":268.39,"ARG_OF_PERICENTER":91.4739,"MEAN_ANOMALY":268.6611,"EPHEMERIS_TYPE":0,"CLASSIFICATION_TYPE":"U","NORAD_CAT_ID":56050,"ELEMENT_SET_NO":999,"REV_AT_EPOCH":13278,"BSTAR":-2.3909287e-5,"MEAN_MOTION_DOT":4.0e-8,"MEAN_MOTION_DDOT":0},{"OBJECT_NAME":"ONEWEB-0549","OBJECT_ID":"2023-043F","EPOCH":"2025-11-30T14:44:19.727808","MEAN_MOTION":13.21823877,"ECCENTRICITY":0.00020354,"INCLINATION":87.9203,"RA_OF_ASC_NODE":283.5944,"ARG_OF_PERICENTER":73.2551,"MEAN_ANOMALY":286.8806,"EPHEMERIS_TYPE":0,"CLASSIFICATION_TYPE":"U","NORAD_CAT_ID":56051,"ELEMENT_SET_NO":999,"REV_AT_EPOCH":13199,"BSTAR":-9.0469573e-5,"MEAN_MOTION_DOT":-2.4e-7,"MEAN_MOTION_DDOT":0}]
