ONEWEB-0666             
1 55826U 23029AG  25334.47507018 -.00000317  00000+0 -81191-3 0  9996
2 55826  87.9187 314.1177 0001156  72.9805 287.1455 13.20770860134921
ONEWEB-0667             
1 55827U 23029AH  25334.46877972  .00000039  00000+0  65040-4 0  9990
2 55827  87.9192 314.0506 0002037  89.4225 270.7142 13.20770213134913
ONEWEB-0669             
1 55828U 23029AJ  25334.46403939 -.00000007  00000+0 -49136-4 0  9994
2 55828  87.9185 314.0869 0001500 105.8083 254.3216 13.20770051134917
ONEWEB-0670             
1 55829U 23029AK  25334.54487663 -.00000025  00000+0 -10293-3 0  9991
2 55829  87.8984 329.3315 0002054  97.8275 262.3088 13.14501493133333
ONEWEB-0671             
1 55830U 23029AL  25334.42350369  .00000000  00000+0 -32856-4 0  9994
2 55830  87.9194 344.5306 0001980  92.8812 267.2547 13.19724801132683
ONEWEB-0672             
1 55831U 23029AM  25334.45928877  .00000159  00000+0  35862-3 0  9996
2 55831  87.9182 314.0680 0001542  86.0482 274.0828 13.20774153134913
ONEWEB-0673             
1 55832U 23029AN  25334.55189524  .00000062  00000+0  12184-3 0  9991
2 55832  87.9210 344.4833 0001545  90.7404 269.3906 13.19650450132702
ONEWEB-0674             
1 55833U 23029AP  25334.43705033  .00000284  00000+0  73271-3 0  9998
2 55833  87.8975 329.3313 0002024 100.6057 259.5301 13.14502849133303
ONEWEB-0675             
1 55834U 23029AQ  25334.49141415 -.00000011  00000+0 -58802-4 0  9997
2 55834  87.9192 344.5263 0001625  83.4377 276.6941 13.19723726132716
ONEWEB-0720             
1 55835U 23029AR  25334.55933710  .00000031  00000+0  44940-4 0  9990
2 55835  87.9192 344.5106 0002154  87.3178 272.8201 13.19724111132641
ONEWEB-0537             
1 56046U 23043A   25334.53854645  .00000020  00000+0  19359-4 0  9992
2 56046  87.9040 268.3268 0001639  71.4528 288.6781 13.16593691132822
ONEWEB-0538             
1 56047U 23043B   25334.53221214  .00000034  00000+0  55026-4 0  9999
2 56047  87.9035 268.3332 0001884  67.1764 292.9566 13.16594269132837
ONEWEB-0546             
1 56048U 23043C   25334.51955582  .00000122  00000+0  28448-3 0  9995
2 56048  87.9047 268.3259 0001152  66.2604 293.8648 13.16595018132823
ONEWEB-0547             
1 56049U 23043D   25334.62152280 -.00000031  00000+0 -10741-3 0  9990
2 56049  87.9207 283.5784 0001987  76.3198 283.8157 13.21823586131991
ONEWEB-0548             
1 56050U 23043E   25334.24008073  .00000004  00000+0 -23909-4 0  9990
2 56050  87.9028 268.3900 0001908  91.4739 268.6611 13.16592643132782
ONEWEB-0549             
1 56051U 23043F   25334.61411722 -.00000024  00000+0 -90470-4 0  9991
2 56051  87.9203 283.5944 0002035  73.2551 286.8806 13.21823877131999
